satname,norad_id,inclination_deg,eccentricity,mean_motion_rev_per_day,perigee_km,apogee_km,l1,l2
STARLINK-1404,45686,53.1585,0.0002687,15.39172,446.7221754205648,450.3908405117454,1 45686U 20035AF  26108.61001552  .00047756  00000+0  12140-2 0  9994,2 45686  53.1585 222.9314 0002687 356.8989   3.1999 15.39172000325102
STARLINK-1413,45689,53.1574,0.0001558,15.30915896,472.01094666661174,474.1457853746633,1 45689U 20035AJ  26108.60679580  .00040429  00000+0  13397-2 0  9993,2 45689  53.1574 224.1370 0001558  40.4136 319.6981 15.30915896325009
STARLINK-1417,45693,53.0504,0.0004109,15.14541721,519.5347882684055,525.2056250908554,1 45693U 20035AN  26108.61303767  .00023199  00000+0  12561-2 0  9997,2 45693  53.0504 233.0715 0004109 358.8890   1.2093 15.14541721324940
STARLINK-1420,45695,53.0477,0.0006325,15.61864225,377.9963290589094,386.54824680814636,1 45695U 20035AQ  26108.51969117  .00146291  00000+0  16291-2 0  9998,2 45695  53.0477 189.0559 0006325 327.9296  32.1331 15.61864225325562
STARLINK-1422,45696,53.1571,0.000182,15.31112536,471.2449403065939,473.73856917331796,1 45696U 20035AR  26108.61292490  .00044991  00000+0  14796-2 0  9995,2 45696  53.1571 224.0950 0001820  23.3679 336.7405 15.31112536325081
STARLINK-1351,45697,53.0474,0.0006669,15.59319842,385.1109605292004,394.13780065863557,1 45697U 20035AS  26108.92220644  .00038056  00000+0  47816-3 0  9997,2 45697  53.0474 186.7666 0006669 334.3831  25.6849 15.59319842325638
STARLINK-1400,45700,53.0454,0.0005493,15.57933632,389.9185714200539,397.3580437729797,1 45700U 20035AV  26108.87634823  .00056832  00000+0  74751-3 0  9994,2 45700  53.0454 188.8737 0005493 293.3934  66.6500 15.57933632325596
STARLINK-1403,45701,53.1564,0.0001447,15.30039717,474.70193804384144,476.68543664475965,1 45701U 20035AW  26108.59116868  .00032792  00000+0  11199-2 0  9993,2 45701  53.1564 211.3722 0001447  33.4281 326.6811 15.30039717325258
STARLINK-1407,45703,53.0292,0.0002969,15.66575889,366.7071864216996,370.71346436351723,1 45703U 20035AY  26108.19075619  .00038472  00000+0  36451-3 0  9999,2 45703  53.0292 122.1337 0002969 288.7847  71.2845 15.66575889326470
STARLINK-1411,45706,53.038,0.000607,15.71546767,350.38905037724453,358.562442251271,1 45706U 20035BB  26108.81713065  .00127176  00000+0  96105-3 0  9997,2 45706  53.0380 143.9602 0006070   9.6340 350.4792 15.71546767326216
STARLINK-1423,45710,53.0439,0.0007426,15.6416091,370.6376842783984,380.6684132588289,1 45710U 20035BF  26109.00002315 -.00184687  00000+0 -19427-2 0  9996,2 45710  53.0439 186.5653 0007426 303.5881 226.7904 15.64160910  5945
STARLINK-1433,45711,53.0444,0.0006885,15.63034374,374.2455761756655,383.5500130878736,1 45711U 20035BG  26108.87642369  .00076541  00000+0  82401-3 0  9990,2 45711  53.0444 185.6006 0006885 309.0404  50.9996 15.63034374325636
STARLINK-1434,45712,53.0515,0.0003059,15.30495381,472.237086193034,476.42942749617123,1 45712U 20035BH  26108.51588228  .00040770  00000+0  13684-2 0  9996,2 45712  53.0515 195.0234 0003059 295.5468  64.5215 15.30495381325484
STARLINK-1465,45731,53.0499,0.0005207,15.56320947,394.7870168199397,401.84401446973334,1 45731U 20038B   26108.08943446  .00059168  00000+0  82594-3 0  9997,2 45731  53.0499  33.1930 0005207  82.2902 277.8700 15.56320947322503
STARLINK-1471,45735,53.0451,0.0001897,15.51073978,412.3007659082732,414.87754681199567,1 45735U 20038F   26108.81581666  .00023352  00000+0  40094-3 0  9999,2 45735  53.0451 309.4502 0001897  61.7240 298.3959 15.51073978323753
STARLINK-1480,45741,53.0532,0.0002888,15.58321207,390.56007684186807,394.4708056919444,1 45741U 20038M   26108.48194219  .00047153  00000+0  61337-3 0  9991,2 45741  53.0532  25.2323 0002888 148.9554 211.1628 15.58321207322664
STARLINK-1500,45744,53.0382,0.000353,15.36894637,452.88648159738295,457.7108871905657,1 45744U 20038Q   26108.43618120  .00016800  00000+0  46850-3 0  9999,2 45744  53.0382   5.9890 0003530  62.7154 297.4208 15.36894637322926
STARLINK-1504,45746,53.0219,6.89e-05,15.55856018,399.1984410582818,400.1324222333633,1 45746U 20038S   26108.28888543  .00023010  00000+0  33260-3 0  9994,2 45746  53.0219 310.7381 0000689  64.3086 295.7995 15.55856018323672
STARLINK-1506,45747,53.0821,0.0004028,15.27336881,481.0131993208297,486.54115738291057,1 45747U 20038T   26108.46211107  .00021517  00000+0  80354-3 0  9997,2 45747  53.0821  18.2469 0004028  40.3893 319.7404 15.27336881322761
STARLINK-1464,45751,53.0499,0.0003173,15.48928221,417.7031681720009,422.01717717778047,1 45751U 20038X   26108.44560027  .00045559  00000+0  83331-3 0  9998,2 45751  53.0499  14.9093 0003173  94.6412 265.4958 15.48928221322806
STARLINK-1477,45754,53.0517,0.0003458,15.16404752,514.3329051810097,519.1013863082062,1 45754U 20038AA  26108.07186821  .00019992  00000+0  10296-2 0  9997,2 45754  53.0517  33.6681 0003458  95.1838 264.9550 15.16404752322507
STARLINK-1478,45755,53.0492,0.0003026,15.61975039,379.90693715406724,383.9981433438261,1 45755U 20038AB  26108.96514412  .00068568  00000+0  77124-3 0  9994,2 45755  53.0492   2.0964 0003026  85.5687 274.5672 15.61975039323010
STARLINK-1493,45759,53.0509,0.0004716,15.57062563,392.9688724919579,399.35839284869326,1 45759U 20038AF  26108.97466006  .00050536  00000+0  68808-3 0  9999,2 45759  53.0509  10.1143 0004716 148.9452 211.1839 15.57062563322906
STARLINK-1494,45760,53.0455,0.0003911,15.83622657,317.5860883300793,322.82553207622095,1 45760U 20038AG  26108.82855470  .00137080  00000+0  60411-3 0  9994,2 45760  53.0455 310.6361 0003911 181.2459 178.8554 15.83622657323731
STARLINK-1502,45764,53.0499,0.0006406,15.5348237,402.221501662626,410.9140654313069,1 45764U 20038AL  26108.46202964  .00081431  00000+0  12545-2 0  9994,2 45764  53.0499  15.1062 0006406 133.4725 226.6819 15.53482370322801
STARLINK-1470,45772,53.0461,0.0003506,15.31504952,468.9200647259786,473.72290501556927,1 45772U 20038AU  26108.91854584  .00025219  00000+0  82654-3 0  9995,2 45772  53.0461 347.0792 0003506 144.6218 215.5015 15.31504952323235
STARLINK-1482,45773,53.1596,0.0003402,15.33587514,462.7911101635473,467.44726167244517,1 45773U 20038AV  26108.41692336  .00029109  00000+0  89181-3 0  9990,2 45773  53.1596   6.0489 0003402 137.2296 222.8971 15.33587514322935
STARLINK-1496,45780,53.05,8.28e-05,15.55061582,401.4122308442238,402.53501716355913,1 45780U 20038BC  26108.38262147  .00061703  00000+0  90201-3 0  9998,2 45780  53.0500 346.8762 0000828 243.5090 116.5835 15.55061582323179
STARLINK-1513,45786,53.1596,0.0001211,15.31694863,469.9259075395903,471.5847092566855,1 45786U 20038BJ  26109.00002315 -.00000326  00000+0  12443-5 0  9992,2 45786  53.1596   3.8765 0001211  88.0900 349.5414 15.31694863  5821
STARLINK-1522,46027,53.0636,0.0001939,15.10955051,531.9459417592998,534.626191624563,1 46027U 20055A   26108.26159820  .00013813  00000+0  83458-3 0  9997,2 46027  53.0636 307.8749 0001939 163.9095 196.1958 15.10955051314860
STARLINK-1523,46028,53.1604,0.0001339,15.30199846,474.29786533193874,476.13319313926877,1 46028U 20055B   26107.84175814  .00000201  00000+0  18910-4 0  9991,2 46028  53.1604 304.8441 0001339  86.2872 273.8282 15.30199846314897
STARLINK-1526,46029,53.1608,0.0001038,15.3020761,474.4809718389397,475.90372301146544,1 46029U 20055C   26108.94577932  .00002456  00000+0  94983-4 0  9999,2 46029  53.1608 299.7263 0001038  79.7574 280.3544 15.30207610315050
STARLINK-1555,46032,53.1598,0.000112,15.3021929,474.3899045803855,475.9250425424625,1 46032U 20055F   26108.79934136 -.00002675  00000+0 -78162-4 0  9995,2 46032  53.1598 300.3917 0001120  78.2943 281.8183 15.30219290315033
STARLINK-1556,46033,53.1594,0.0001008,15.30201681,474.51923287825593,475.90086764358784,1 46033U 20055G   26108.91312016  .00000959  00000+0  44502-4 0  9999,2 46033  53.1594 299.8773 0001008  94.6396 265.4720 15.30201681315020
STARLINK-1557,46034,53.1557,0.0001284,15.29383865,476.7727015737073,478.5332684418563,1 46034U 20055H   26108.90955587  .00007209  00000+0  26170-3 0  9990,2 46034  53.1557 299.8218 0001284  88.5179 271.5969 15.29383865315027
STARLINK-1558,46035,53.1606,0.0001222,15.3020296,474.36875286423674,476.0437099499932,1 46035U 20055J   26108.85834109 -.00000049  00000+0  10469-4 0  9992,2 46035  53.1606 300.1273 0001222  87.2536 272.8605 15.30202960315046
STARLINK-1560,46036,53.1569,9.95e-05,15.29351117,477.0686925179416,478.4330142007593,1 46036U 20055K   26108.90633831  .00001883  00000+0  77581-4 0  9992,2 46036  53.1569 299.8764 0000995  91.5836 268.5278 15.29351117315057
STARLINK-1567,46038,53.0846,8.73e-05,15.90022801,301.63579954132547,302.80218969798534,1 46038U 20055M   26109.00002315  .01157798  00000+0  33730-2 0  9997,2 46038  53.0846 291.1677 0000873 341.8715 141.7156 15.90022801  2138
STARLINK-1569,46039,53.1589,0.0001266,15.30207053,474.32637880759194,476.06164221945346,1 46039U 20055N   26108.86150129  .00003230  00000+0  12111-3 0  9999,2 46039  53.1589 300.1084 0001266  77.8399 282.2744 15.30207053315036
STARLINK-1582,46043,53.1612,0.0001156,15.31714323,469.905574195649,471.4890246856794,1 46043U 20055S   26108.86273710  .00001695  00000+0  66332-4 0  9994,2 46043  53.1612 300.0403 0001156  96.2872 263.8261 15.31714323315034
STARLINK-1591,46045,53.1582,8.43e-05,15.30204777,474.6230698184281,475.7785425725524,1 46045U 20055U   26108.82884656  .00002354  00000+0  91548-4 0  9999,2 46045  53.1582 300.2634 0000843  89.9831 270.1266 15.30204777315016
STARLINK-1524,46047,53.1599,0.0001184,15.30222663,474.3359737482342,475.95883149477595,1 46047U 20055W   26108.88831484 -.00002684  00000+0 -78482-4 0  9998,2 46047  53.1599 287.1202 0001184  94.3763 265.7373 15.30222663315229
STARLINK-1527,46048,53.1604,8.89e-05,15.3167673,470.20049143133474,471.4182340946336,1 46048U 20055X   26109.00002315  .00037290  00000+0  12083-2 0  9999,2 46048  53.1604 286.6799 0000889  72.9731 159.4825 15.31676730  5877
